#*******************************************************************************
#Ephemeris / WWW_USER Wed Dec  9 11:07:12 2020 Pasadena, USA      / Horizons    
#*******************************************************************************
#Target body name: 101583 (1999 BF10)              {source: JPL#24}
#Center body name: Earth (399)                     {source: DE431}
#Center-site name: Greenwich
#*******************************************************************************
#Start time      : A.D. 2018-Nov-14 00:00:00.0000 UT      
#Stop  time      : A.D. 2018-Dec-14 00:00:00.0000 UT      
#Step-size       : 60 minutes
#*******************************************************************************
#Target pole/equ : No model available
#Target radii    : (unavailable)                                                
#Center geodetic : 0.00000000,51.4773207,0.0670693 {E-lon(deg),Lat(deg),Alt(km)}
#Center cylindric: 0.00000000,3980.66470,4966.8438 {E-lon(deg),Dxy(km),Dz(km)}
#Center pole/equ : High-precision EOP model        {East-longitude positive}
#Center radii    : 6378.1 x 6378.1 x 6356.8 km     {Equator, meridian, pole}    
#Target primary  : Sun
#Vis. interferer : MOON (R_eq= 1737.400) km        {source: DE431}
#Rel. light bend : Sun, EARTH                      {source: DE431}
#Rel. lght bnd GM: 1.3271E+11, 3.9860E+05 km^3/s^2                              
#Small-body perts: Yes                             {source: SB431-N16}
#Atmos refraction: NO (AIRLESS)
#RA format       : DEG
#Time format     : JD  
#EOP file        : eop.201208.p210301                                           
#EOP coverage    : DATA-BASED 1962-JAN-20 TO 2020-DEC-08. PREDICTS-> 2021-FEB-28
#Units conversion: 1 au= 149597870.700 km, c= 299792.458 km/s, 1 day= 86400.0 s 
#Table cut-offs 1: Elevation (-90.0deg=NO ),Airmass (>38.000=NO), Daylight (NO )
#Table cut-offs 2: Solar elongation (  0.0,180.0=NO ),Local Hour Angle( 0.0=NO )
#Table cut-offs 3: RA/DEC angular rate (     0.0=NO )                           
#*******************************************************************************
#Initial IAU76/J2000 heliocentric ecliptic osculating elements (au, days, deg.):
#  EPOCH=  2457225.5 ! 2015-Jul-22.00 (TDB)         Residual RMS= .27127        
#   EC= .1016538277330891   QR= 2.306382726576485   TP= 2457200.118066729       
#   OM= 137.4869567035342   W=  353.2637321847961   IN= 7.215318800630471       
#  Equivalent ICRF heliocentric equatorial cartesian coordinates (au, au/d):
#   X=-1.721704422047005E+00  Y= 1.408989074602450E+00  Z= 6.150418746318230E-01
#  VX=-7.954494807110990E-03 VY=-8.573057775875635E-03 VZ=-2.090525305345881E-03
#Asteroid physical parameters (km, seconds, rotational period in hours):        
#   GM= n.a.                RAD= n.a.               ROTPER= n.a.                
#   H= 15.                  G= .150                 B-V= n.a.                   
#                           ALBEDO= n.a.            STYP= n.a.                  
#**************************************************************************************
#Date_________JDUT     R.A._______(ICRF)_______DEC   APmag   S-brt    S-O-T /r    S-T-O
#**************************************************************************************
#$$SOE
2458446.125000000 *    57.600586571   8.068159723  18.236    n.a. 167.6498 /T   4.9194
2458446.166666667 *    57.590698949   8.066639455  18.237    n.a. 167.6346 /T   4.9255
2458446.208333333 Nm   57.580747598   8.065127092  18.237    n.a. 167.6192 /T   4.9316
2458446.250000000 Am   57.570726876   8.063620151  18.237    n.a. 167.6036 /T   4.9378
2458446.291666667  m   57.560635935   8.062116038  18.237    n.a. 167.5878 /T   4.9440
2458446.333333333  m   57.550478779   8.060612224  18.238    n.a. 167.5717 /T   4.9504
2458446.375000000  m   57.540263993   8.059106423  18.238    n.a. 167.5554 /T   4.9569
2458446.416666667  m   57.530004154   8.057596744  18.238    n.a. 167.5389 /T   4.9634
2458446.458333333  m   57.519714970   8.056081823  18.239    n.a. 167.5222 /T   4.9700
2458446.500000000  m   57.509414205   8.054560921  18.239    n.a. 167.5052 /T   4.9768
2458446.541666667  m   57.499120458   8.053033966  18.239    n.a. 167.4879 /T   4.9836
2458446.583333333  m   57.488851892   8.051501565  18.240    n.a. 167.4704 /T   4.9904
2458446.625000000  m   57.478624985   8.049964961  18.240    n.a. 167.4527 /T   4.9974
2458446.666666667  m   57.468453407   8.048425945  18.240    n.a. 167.4348 /T   5.0045
2458446.708333333  m   57.458347075   8.046886737  18.241    n.a. 167.4167 /T   5.0116
2458446.750000000 Am   57.448311483   8.045349830  18.241    n.a. 167.3985 /T   5.0187
2458446.791666667 Cm   57.438347319   8.043817821  18.241    n.a. 167.3801 /T   5.0260
2458446.833333333 *m   57.428450426   8.042293236  18.242    n.a. 167.3615 /T   5.0333
2458446.875000000 *    57.418612086   8.040778350  18.242    n.a. 167.3428 /T   5.0406
2458446.916666667 *    57.408819619   8.039275038  18.242    n.a. 167.3240 /T   5.0480
2458446.958333333 *    57.399057258   8.037784645  18.243    n.a. 167.3051 /T   5.0555
2458447.000000000 *    57.389307226   8.036307890  18.243    n.a. 167.2860 /T   5.0630
2458447.041666667 *    57.379550967   8.034844825  18.244    n.a. 167.2669 /T   5.0705
2458447.083333333 *    57.369770409   8.033394825  18.244    n.a. 167.2475 /T   5.0782
2458447.125000000 *    57.359949214   8.031956636  18.244    n.a. 167.2281 /T   5.0859
2458447.166666667 *    57.350073897   8.030528458  18.245    n.a. 167.2084 /T   5.0937
2458447.208333333 N    57.340134750   8.029108071  18.245    n.a. 167.1886 /T   5.1015
2458447.250000000  m   57.330126516   8.027692988  18.245    n.a. 167.1686 /T   5.1094
2458447.291666667  m   57.320048745   8.026280625  18.246    n.a. 167.1484 /T   5.1174
2458447.333333333  m   57.309905831   8.024868477  18.246    n.a. 167.1279 /T   5.1255
2458447.375000000  m   57.299706708   8.023454295  18.247    n.a. 167.1072 /T   5.1337
2458447.416666667  m   57.289464242   8.022036234  18.247    n.a. 167.0863 /T   5.1420
2458447.458333333  m   57.279194351   8.020612985  18.247    n.a. 167.0652 /T   5.1503
2458447.500000000  m   57.268914907   8.019183863  18.248    n.a. 167.0438 /T   5.1588
2458447.541666667  m   57.258644520   8.017748852  18.248    n.a. 167.0222 /T   5.1673
2458447.583333333  m   57.248401254   8.016308612  18.249    n.a. 167.0004 /T   5.1758
2458447.625000000  m   57.238201396   8.014864427  18.249    n.a. 166.9784 /T   5.1845
2458447.666666667  m   57.228058337   8.013418119  18.250    n.a. 166.9562 /T   5.1932
2458447.708333333  m   57.217981651   8.011971927  18.250    n.a. 166.9339 /T   5.2020
2458447.750000000 Am   57.207976447   8.010528349  18.251    n.a. 166.9115 /T   5.2108
2458447.791666667 Cm   57.198043015   8.009089970  18.251    n.a. 166.8889 /T   5.2196
2458447.833333333 *m   57.188176811   8.007659290  18.251    n.a. 166.8663 /T   5.2285
2458447.875000000 *m   57.178368768   8.006238549  18.252    n.a. 166.8435 /T   5.2375
2458447.916666667 *    57.168605923   8.004829574  18.252    n.a. 166.8206 /T   5.2465
2458447.958333333 *    57.158872305   8.003433655  18.253    n.a. 166.7977 /T   5.2555
2458448.000000000 *    57.149150033   8.002051457  18.253    n.a. 166.7746 /T   5.2646
2458448.041666667 *    57.139420548   8.000682975  18.254    n.a. 166.7515 /T   5.2737
2458448.083333333 *    57.129665881   7.999327534  18.254    n.a. 166.7282 /T   5.2829
2458448.125000000 *    57.119869892   7.997983837  18.255    n.a. 166.7047 /T   5.2921
2458448.166666667 *    57.110019377   7.996650052  18.255    n.a. 166.6812 /T   5.3014
2458448.208333333 N    57.100104975   7.995323943  18.256    n.a. 166.6574 /T   5.3108
2458448.250000000      57.090121815   7.994003018  18.256    n.a. 166.6334 /T   5.3203
2458448.291666667  m   57.080069845   7.992684703  18.256    n.a. 166.6093 /T   5.3298
2458448.333333333  m   57.069953844   7.991366521  18.257    n.a. 166.5849 /T   5.3395
2458448.375000000  m   57.059783093   7.990046257  18.257    n.a. 166.5603 /T   5.3492
2458448.416666667  m   57.049570738   7.988722115  18.258    n.a. 166.5355 /T   5.3590
2458448.458333333  m   57.039332892   7.987392839  18.258    n.a. 166.5104 /T   5.3688
2458448.500000000  m   57.029087529   7.986057799  18.259    n.a. 166.4852 /T   5.3788
2458448.541666667  m   57.018853254   7.984717037  18.259    n.a. 166.4597 /T   5.3888
2458448.583333333  m   57.008648025   7.983371260  18.260    n.a. 166.4341 /T   5.3988
2458448.625000000  m   56.998487924   7.982021794  18.261    n.a. 166.4083 /T   5.4090
2458448.666666667  m   56.988386054   7.980670493  18.261    n.a. 166.3824 /T   5.4191
2458448.708333333  m   56.978351645   7.979319613  18.262    n.a. 166.3563 /T   5.4293
2458448.750000000 Am   56.968389415   7.977971653  18.262    n.a. 166.3302 /T   5.4396
2458448.791666667 Cm   56.958499258   7.976629189  18.263    n.a. 166.3040 /T   5.4499
2458448.833333333 *m   56.948676245   7.975294694  18.263    n.a. 166.2777 /T   5.4602
2458448.875000000 *m   56.938910968   7.973970370  18.264    n.a. 166.2513 /T   5.4705
2458448.916666667 *m   56.929190188   7.972657997  18.264    n.a. 166.2249 /T   5.4809
2458448.958333333 *    56.919497743   7.971358811  18.265    n.a. 166.1984 /T   5.4913
2458449.000000000 *    56.909815658   7.970073422  18.265    n.a. 166.1719 /T   5.5017
2458449.041666667 *    56.900125382   7.968801768  18.266    n.a. 166.1452 /T   5.5122
2458449.083333333 *    56.890409061   7.967543126  18.266    n.a. 166.1184 /T   5.5227
2458449.125000000 *    56.880650763   7.966296156  18.267    n.a. 166.0915 /T   5.5333
2458449.166666667 *    56.870837576   7.965058998  18.267    n.a. 166.0645 /T   5.5440
2458449.208333333 N    56.860960488   7.963829396  18.268    n.a. 166.0373 /T   5.5547
2458449.250000000      56.851015017   7.962604858  18.269    n.a. 166.0099 /T   5.5655
2458449.291666667      56.841001510   7.961382821  18.269    n.a. 165.9823 /T   5.5764
